NORAD_CAT_ID,OBJECT_NAME,OBJECT_TYPE,EPOCH,MEAN_MOTION,ECCENTRICITY,INCLINATION,RA_OF_ASC_NODE,ARG_OF_PERICENTER,MEAN_ANOMALY,BSTAR,MEAN_MOTION_DOT,MEAN_MOTION_DDOT,TLE_LINE0,TLE_LINE1,TLE_LINE2,SEMIMAJOR_AXIS,PERIOD,APOGEE,PERIGEE,DECAYED
52275.0,STARLINK-3784,PAYLOAD,2022-08-13 22:00:00,15.08811891,0.0002045999999999,53.2181,201.9687,52.1225,151.9889,0.0015550999999999,0.00024529,0.0,0 STARLINK-3784,1 52275U 22041Q   22225.91667824  .00024529  00000-0  15551-2 0  9997,2 52275  53.2181 201.9687 0002046  52.1225 151.9889 15.08811891  1302,6917.965999999999,95.439,541.247,538.4159999999998,0.0
52275.0,STARLINK-3784,PAYLOAD,2022-08-14 06:00:02,15.08812366,0.0002211999999999,53.218,200.4776,47.6707,168.0774,0.0012120999999999,0.00019041,0.0,0 STARLINK-3784,1 52275U 22041Q   22226.25002315  .00019041  00000-0  12121-2 0  9996,2 52275  53.2180 200.4776 0002212  47.6707 168.0774 15.08812366 18806,6917.965,95.439,541.36,538.3,0.0
52275.0,STARLINK-3784,PAYLOAD,2022-08-14 14:00:01,15.08847678,0.0002159,53.2184,198.977,48.5192,178.7934,-0.0019637,-0.00031412,0.0,0 STARLINK-3784,1 52275U 22041Q   22226.58334491 -.00031412  00000-0 -19637-2 0  9992,2 52275  53.2184 198.9770 0002159  48.5192 178.7934 15.08847678  1300,6917.857,95.437,541.215,538.2280000000002,0.0
52275.0,STARLINK-3784,PAYLOAD,2022-08-14 22:00:00,15.08831032,0.0002094,53.2188,197.4799,54.0099,184.8893,0.0013846,0.00021811,0.0,0 STARLINK-3784,1 52275U 22041Q   22226.91667824  .00021811  00000-0  13846-2 0  9994,2 52275  53.2188 197.4799 0002094  54.0099 184.8893 15.08831032  1304,6917.908,95.438,541.221,538.3240000000002,0.0
52275.0,STARLINK-3784,PAYLOAD,2022-08-15 06:00:00,15.08832471,0.0002273,53.2188,195.9854,48.9563,201.539,0.00062885,9.732e-05,0.0,0 STARLINK-3784,1 52275U 22041Q   22227.25001157  .00009732  00000-0  62885-3 0  9999,2 52275  53.2188 195.9854 0002273  48.9563 201.5390 15.08832471 18952,6917.903,95.438,541.341,538.196,0.0
52275.0,STARLINK-3784,PAYLOAD,2022-08-15 14:00:01,15.08865139,0.0002119,53.2187,194.4882,49.3793,212.7037,-0.0048362,-0.00076495,0.0,0 STARLINK-3784,1 52275U 22041Q   22227.58334491 -.00076495  00000-0 -48362-2 0  9990,2 52275  53.2187 194.4882 0002119  49.3793 212.7037 15.08865139  1305,6917.804,95.436,541.134,538.203,0.0
52275.0,STARLINK-3784,PAYLOAD,2022-08-15 22:00:00,15.08820328,0.0002015,53.219,192.9913,54.0478,219.624,0.0010559,0.00016548,0.0,0 STARLINK-3784,1 52275U 22041Q   22227.91667824  .00016548  00000-0  10559-2 0  9994,2 52275  53.2190 192.9913 0002015  54.0478 219.6240 15.08820328  1308,6917.941,95.439,541.1990000000002,538.4119999999998,0.0
52275.0,STARLINK-3784,PAYLOAD,2022-08-16 06:00:02,15.08816755,0.0002209,53.2188,191.4968,49.2191,236.0981,0.0010670999999999,0.00016725,0.0,0 STARLINK-3784,1 52275U 22041Q   22228.25002315  .00016725  00000-0  10671-2 0  9992,2 52275  53.2188 191.4968 0002209  49.2191 236.0981 15.08816755 19103,6917.951,95.439,541.345,538.288,0.0
52275.0,STARLINK-3784,PAYLOAD,2022-08-16 14:00:01,15.08845119,0.0002094,53.2186,189.9995,50.904,245.9217,-0.0018741,-0.00029996,0.0,0 STARLINK-3784,1 52275U 22041Q   22228.58334491 -.00029996  00000-0 -18741-2 0  9993,2 52275  53.2186 189.9995 0002094  50.9040 245.9217 15.08845119  1307,6917.865,95.437,541.178,538.281,0.0
52275.0,STARLINK-3784,PAYLOAD,2022-08-16 22:00:00,15.08838778,0.0002038,53.2187,188.5028,56.303,252.1074,0.00066106,0.00010248,0.0,0 STARLINK-3784,1 52275U 22041Q   22228.91667824  .00010248  00000-0  66106-3 0  9996,2 52275  53.2187 188.5028 0002038  56.3030 252.1074 15.08838778  1301,6917.884,95.438,541.159,538.339,0.0
52275.0,STARLINK-3784,PAYLOAD,2022-08-17 14:00:01,15.08855479,0.0002116,53.218,185.5108,53.5421,278.0585,-0.001533,-0.00024614,0.0,0 STARLINK-3784,1 52275U 22041Q   22229.58334491 -.00024614  00000-0 -15330-2 0  9997,2 52275  53.2180 185.5108 0002116  53.5421 278.0585 15.08855479 19300,6917.833000000001,95.437,541.1619999999998,538.234,0.0
52275.0,STARLINK-3784,PAYLOAD,2022-08-17 16:00:00,15.08835219,0.0002044999999999,53.218,185.1364,55.3259,9.1822,0.0010440999999999,0.00016366,0.0,0 STARLINK-3784,1 52275U 22041Q   22229.66667824  .00016366  00000-0  10441-2 0  9996,2 52275  53.2180 185.1364 0002045  55.3259   9.1822 15.08835219  1308,6917.895,95.438,541.175,538.345,0.0
52275.0,STARLINK-3784,PAYLOAD,2022-08-18 08:00:01,15.08817993,0.0002144,53.2175,182.1456,50.4829,37.237,0.0034109,0.00054383,0.0,0 STARLINK-3784,1 52275U 22041Q   22230.33334491  .00054383  00000-0  34109-2 0  9991,2 52275  53.2175 182.1456 0002144  50.4829  37.2370 15.08817993 19421,6917.948,95.439,541.2959999999998,538.3290000000002,0.0
52275.0,STARLINK-3784,PAYLOAD,2022-08-18 14:00:01,15.08853729,0.0002055,53.2175,181.0219,54.5136,311.8968,-0.0005577999999999,-9.158e-05,0.0,0 STARLINK-3784,1 52275U 22041Q   22230.58334491 -.00009158  00000-0 -55780-3 0  9999,2 52275  53.2175 181.0219 0002055  54.5136 311.8968 15.08853729  1302,6917.8380000000025,95.437,541.125,538.2819999999998,0.0
52275.0,STARLINK-3784,PAYLOAD,2022-08-18 22:00:00,15.08870974,0.0002016,53.2175,179.5254,57.5948,320.4091,-0.0016026,-0.00025725,0.0,0 STARLINK-3784,1 52275U 22041Q   22230.91667824 -.00025725  00000-0 -16026-2 0  9992,2 52275  53.2175 179.5254 0002016  57.5948 320.4091 15.08870974  1308,6917.786,95.436,541.045,538.256,0.0
52275.0,STARLINK-3784,PAYLOAD,2022-08-19 14:00:01,15.08819559,0.0001934,53.2174,176.5328,51.9191,349.3023,-0.00023566,-4.035e-05,0.0,0 STARLINK-3784,1 52275U 22041Q   22231.58334491 -.00004035  00000-0 -23566-3 0  9996,2 52275  53.2174 176.5328 0001934  51.9191 349.3023 15.08819559  1309,6917.943,95.439,541.146,538.47,0.0
52275.0,STARLINK-3784,PAYLOAD,2022-08-19 22:00:00,15.08834064,0.000197,53.2174,175.0365,55.0552,357.7264,-0.00029976,-5.055e-05,0.0,0 STARLINK-3784,1 52275U 22041Q   22231.91667824 -.00005055  00000-0 -29976-3 0  9996,2 52275  53.2174 175.0365 0001970  55.0552 357.7264 15.08834064  1308,6917.899,95.438,541.126,538.401,0.0
52275.0,STARLINK-3784,PAYLOAD,2022-08-20 06:00:00,15.08813167,0.0002106999999999,53.2175,173.5418,49.291,15.0779,0.0018436,0.00029153,0.0,0 STARLINK-3784,1 52275U 22041Q   22232.25001157  .00029153  00000-0  18436-2 0  9996,2 52275  53.2175 173.5418 0002107  49.2910  15.0779 15.08813167 19717,6917.962,95.439,541.285,538.37,0.0
52275.0,STARLINK-3784,PAYLOAD,2022-08-20 14:00:01,15.0882622,0.0001932,53.2177,172.0438,51.6596,24.2981,-0.0012408,-0.00019974,0.0,0 STARLINK-3784,1 52275U 22041Q   22232.58334491 -.00019974  00000-0 -12408-2 0  9997,2 52275  53.2177 172.0438 0001932  51.6596  24.2981 15.08826220  1304,6917.9230000000025,95.438,541.124,538.451,0.0
52275.0,STARLINK-3784,PAYLOAD,2022-08-20 22:00:00,15.08831747,0.0001971,53.2178,170.5476,53.5938,33.9253,-0.00061111,-9.999e-05,0.0,0 STARLINK-3784,1 52275U 22041Q   22232.91667824 -.00009999  00000-0 -61111-3 0  9995,2 52275  53.2178 170.5476 0001971  53.5938  33.9253 15.08831747  1303,6917.906,95.438,541.134,538.4069999999998,0.0
52275.0,STARLINK-3784,PAYLOAD,2022-08-21 14:00:01,15.08826025,0.000199,53.2182,167.555,52.6294,58.0443,0.0006778999999999,0.00010513,0.0,0 STARLINK-3784,1 52275U 22041Q   22233.58334491  .00010513  00000-0  67790-3 0  9991,2 52275  53.2182 167.5550 0001990  52.6294  58.0443 15.08826025  1305,6917.9230000000025,95.438,541.165,538.411,0.0
52275.0,STARLINK-3784,PAYLOAD,2022-08-21 22:00:00,15.08852721,0.0002056999999999,53.2184,166.0589,54.8044,67.4458,-0.00099721,-0.0001613,0.0,0 STARLINK-3784,1 52275U 22041Q   22233.91667824 -.00016130  00000-0 -99721-3 0  9999,2 52275  53.2184 166.0589 0002057  54.8044  67.4458 15.08852721 19968,6917.842,95.437,541.13,538.284,0.0
52275.0,STARLINK-3784,PAYLOAD,2022-08-22 12:00:00,15.08860335,0.0002101,53.2185,163.4405,52.8943,359.6532,-0.0015327,-0.00024613,0.0,0 STARLINK-3784,1 52275U 22041Q   22234.50001157 -.00024613  00000-0 -15327-2 0  9990,2 52275  53.2185 163.4405 0002101  52.8943 359.6532 15.08860335  1301,6917.818,95.436,541.137,538.23,0.0
52275.0,STARLINK-3784,PAYLOAD,2022-08-22 22:00:00,15.08868298,0.0002034,53.2189,161.5701,55.2756,101.781,-0.0033902999999999,-0.00053884,0.0,0 STARLINK-3784,1 52275U 22041Q   22234.91667824 -.00053884  00000-0 -33903-2 0  9996,2 52275  53.2189 161.5701 0002034  55.2756 101.7810 15.08868298 20118,6917.794,95.436,541.066,538.252,0.0
52275.0,STARLINK-3784,PAYLOAD,2022-08-23 14:00:01,15.08822064,0.0001964,53.2188,158.5773,54.70399999999999,125.5428,0.0013514,0.00021274,0.0,0 STARLINK-3784,1 52275U 22041Q   22235.58334491  .00021274  00000-0  13514-2 0  9993,2 52275  53.2188 158.5773 0001964  54.7040 125.5428 15.08822064 20214,6917.935,95.439,541.159,538.442,0.0
52275.0,STARLINK-3784,PAYLOAD,2022-08-23 22:00:01,15.08856395,0.0002031,53.2191,157.0816,56.4247,135.466,-0.0014967,-0.0002404,0.0,0 STARLINK-3784,1 52275U 22041Q   22235.91668981 -.00024040  00000-0 -14967-2 0  9993,2 52275  53.2191 157.0816 0002031  56.4247 135.4660 15.08856395  1305,6917.83,95.437,541.1,538.29,0.0
52275.0,STARLINK-3784,PAYLOAD,2022-08-24 14:00:01,15.08829407,0.0001995,53.2188,154.0886,57.4996,157.5338,0.0017835999999999,0.00028204,0.0,0 STARLINK-3784,1 52275U 22041Q   22236.58334491  .00028204  00000-0  17836-2 0  9995,2 52275  53.2188 154.0886 0001995  57.4996 157.5338 15.08829407 20363,6917.913000000001,95.438,541.158,538.398,0.0
52275.0,STARLINK-3784,PAYLOAD,2022-08-24 22:00:00,15.0886525,0.0002064,53.2189,152.5933,58.3966,168.229,-0.001567,-0.00025158,0.0,0 STARLINK-3784,1 52275U 22041Q   22236.91667824 -.00025158  00000-0 -15670-2 0  9992,2 52275  53.2189 152.5933 0002064  58.3966 168.2290 15.08865250  1300,6917.803000000001,95.436,541.096,538.24,0.0
52275.0,STARLINK-3784,PAYLOAD,2022-08-25 06:00:02,15.08847288,0.0002125,53.2185,151.0979,53.5139,184.7883,-0.00077349,-0.0001258,0.0,0 STARLINK-3784,1 52275U 22041Q   22237.25002315 -.00012580  00000-0 -77349-3 0  9995,2 52275  53.2185 151.0979 0002125  53.5139 184.7883 15.08847288 20467,6917.858,95.437,541.193,538.253,0.0
